CCSDS_OMM_VERS = 2.0
CREATION_DATE  = 
ORIGINATOR     = 

OBJECT_NAME    = SL-14 R/B
OBJECT_ID      = 1986-046B
CENTER_NAME    = EARTH
REF_FRAME      = TEME
TIME_SYSTEM    = UTC
MEAN_ELEMENT_THEORY = SGP/SGP4

EPOCH          = 2026-02-28T12:17:42.916992
MEAN_MOTION    = 14.85579868
ECCENTRICITY   = .00215696
INCLINATION    = 82.4786
RA_OF_ASC_NODE = 88.8560
ARG_OF_PERICENTER = 257.5358
MEAN_ANOMALY   = 102.3445

EPHEMERIS_TYPE = 0
CLASSIFICATION_TYPE = U
NORAD_CAT_ID   = 16792
ELEMENT_SET_NO = 999
REV_AT_EPOCH   = 12504
BSTAR          = .54532489E-4
MEAN_MOTION_DOT = .497E-5
MEAN_MOTION_DDOT = 0

CCSDS_OMM_VERS = 2.0
CREATION_DATE  = 
ORIGINATOR     = 

OBJECT_NAME    = SL-14 R/B
OBJECT_ID      = 1986-055B
CENTER_NAME    = EARTH
REF_FRAME      = TEME
TIME_SYSTEM    = UTC
MEAN_ELEMENT_THEORY = SGP/SGP4

EPOCH          = 2026-02-28T17:18:11.386368
MEAN_MOTION    = 14.85632776
ECCENTRICITY   = .00189748
INCLINATION    = 82.5218
RA_OF_ASC_NODE = 135.1032
ARG_OF_PERICENTER = 6.6659
MEAN_ANOMALY   = 111.8270

EPHEMERIS_TYPE = 0
CLASSIFICATION_TYPE = U
NORAD_CAT_ID   = 16882
ELEMENT_SET_NO = 999
REV_AT_EPOCH   = 11803
BSTAR          = .53342665E-4
MEAN_MOTION_DOT = .487E-5
MEAN_MOTION_DDOT = 0

CCSDS_OMM_VERS = 2.0
CREATION_DATE  = 
ORIGINATOR     = 

OBJECT_NAME    = AJISAI (EGS)
OBJECT_ID      = 1986-061A
CENTER_NAME    = EARTH
REF_FRAME      = TEME
TIME_SYSTEM    = UTC
MEAN_ELEMENT_THEORY = SGP/SGP4

EPOCH          = 2026-02-28T23:03:13.514976
MEAN_MOTION    = 12.44515491
ECCENTRICITY   = .0011246
INCLINATION    = 50.0082
RA_OF_ASC_NODE = 120.1906
ARG_OF_PERICENTER = 264.5414
MEAN_ANOMALY   = 158.2283

EPHEMERIS_TYPE = 0
CLASSIFICATION_TYPE = U
NORAD_CAT_ID   = 16908
ELEMENT_SET_NO = 999
REV_AT_EPOCH   = 46691
BSTAR          = .66820753E-4
MEAN_MOTION_DOT = -.88E-6
MEAN_MOTION_DDOT = 0

CCSDS_OMM_VERS = 2.0
CREATION_DATE  = 
ORIGINATOR     = 

OBJECT_NAME    = COSMOS 1812
OBJECT_ID      = 1987-003A
CENTER_NAME    = EARTH
REF_FRAME      = TEME
TIME_SYSTEM    = UTC
MEAN_ELEMENT_THEORY = SGP/SGP4

EPOCH          = 2026-03-01T02:03:09.689184
MEAN_MOTION    = 16.16461233
ECCENTRICITY   = .0006192
INCLINATION    = 82.4736
RA_OF_ASC_NODE = 205.4843
ARG_OF_PERICENTER = 288.5601
MEAN_ANOMALY   = 71.5013

EPHEMERIS_TYPE = 0
CLASSIFICATION_TYPE = U
NORAD_CAT_ID   = 17295
ELEMENT_SET_NO = 999
REV_AT_EPOCH   = 14309
BSTAR          = .81083E-3
MEAN_MOTION_DOT = .1151834E-1
MEAN_MOTION_DDOT = .95835E-3

CCSDS_OMM_VERS = 2.0
CREATION_DATE  = 
ORIGINATOR     = 

OBJECT_NAME    = SL-14 R/B
OBJECT_ID      = 1987-024B
CENTER_NAME    = EARTH
REF_FRAME      = TEME
TIME_SYSTEM    = UTC
MEAN_ELEMENT_THEORY = SGP/SGP4

EPOCH          = 2026-02-28T14:47:35.691648
MEAN_MOTION    = 14.86121953
ECCENTRICITY   = .00167499
INCLINATION    = 82.5257
RA_OF_ASC_NODE = 101.2936
ARG_OF_PERICENTER = 292.7368
MEAN_ANOMALY   = 67.2078

EPHEMERIS_TYPE = 0
CLASSIFICATION_TYPE = U
NORAD_CAT_ID   = 17567
ELEMENT_SET_NO = 999
REV_AT_EPOCH   = 8678
BSTAR          = .49442576E-4
MEAN_MOTION_DOT = .458E-5
MEAN_MOTION_DDOT = 0

CCSDS_OMM_VERS = 2.0
CREATION_DATE  = 
ORIGINATOR     = 

OBJECT_NAME    = COSMOS 1833
OBJECT_ID      = 1987-027A
CENTER_NAME    = EARTH
REF_FRAME      = TEME
TIME_SYSTEM    = UTC
MEAN_ELEMENT_THEORY = SGP/SGP4

EPOCH          = 2026-02-28T22:34:44.141952
MEAN_MOTION    = 14.13056500
ECCENTRICITY   = .00246389
INCLINATION    = 70.9233
RA_OF_ASC_NODE = 344.4050
ARG_OF_PERICENTER = 226.5786
MEAN_ANOMALY   = 133.3285

EPHEMERIS_TYPE = 0
CLASSIFICATION_TYPE = U
NORAD_CAT_ID   = 17589
ELEMENT_SET_NO = 999
REV_AT_EPOCH   = 908
BSTAR          = -.44028456E-4
MEAN_MOTION_DOT = -.131E-5
MEAN_MOTION_DDOT = 0

CCSDS_OMM_VERS = 2.0
CREATION_DATE  = 
ORIGINATOR     = 

OBJECT_NAME    = SL-16 R/B
OBJECT_ID      = 1987-027B
CENTER_NAME    = EARTH
REF_FRAME      = TEME
TIME_SYSTEM    = UTC
MEAN_ELEMENT_THEORY = SGP/SGP4

EPOCH          = 2026-02-28T22:33:19.544256
MEAN_MOTION    = 14.17166989
ECCENTRICITY   = .00038467
INCLINATION    = 71.0024
RA_OF_ASC_NODE = 294.9344
ARG_OF_PERICENTER = 160.7685
MEAN_ANOMALY   = 199.3585

EPHEMERIS_TYPE = 0
CLASSIFICATION_TYPE = U
NORAD_CAT_ID   = 17590
ELEMENT_SET_NO = 999
REV_AT_EPOCH   = 1410
BSTAR          = -.5209159E-4
MEAN_MOTION_DOT = -.153E-5
MEAN_MOTION_DDOT = 0

CCSDS_OMM_VERS = 2.0
CREATION_DATE  = 
ORIGINATOR     = 

OBJECT_NAME    = SL-14 R/B
OBJECT_ID      = 1987-038B
CENTER_NAME    = EARTH
REF_FRAME      = TEME
TIME_SYSTEM    = UTC
MEAN_ELEMENT_THEORY = SGP/SGP4

EPOCH          = 2026-02-28T21:01:39.248544
MEAN_MOTION    = 14.85359987
ECCENTRICITY   = .00189125
INCLINATION    = 82.5018
RA_OF_ASC_NODE = 305.1104
ARG_OF_PERICENTER = 189.3354
MEAN_ANOMALY   = 170.7514

EPHEMERIS_TYPE = 0
CLASSIFICATION_TYPE = U
NORAD_CAT_ID   = 17912
ELEMENT_SET_NO = 999
REV_AT_EPOCH   = 7792
BSTAR          = .53246019E-4
MEAN_MOTION_DOT = .483E-5
MEAN_MOTION_DDOT = 0

CCSDS_OMM_VERS = 2.0
CREATION_DATE  = 
ORIGINATOR     = 

OBJECT_NAME    = COSMOS 1844
OBJECT_ID      = 1987-041A
CENTER_NAME    = EARTH
REF_FRAME      = TEME
TIME_SYSTEM    = UTC
MEAN_ELEMENT_THEORY = SGP/SGP4

EPOCH          = 2026-02-28T23:38:45.391776
MEAN_MOTION    = 14.14553158
ECCENTRICITY   = .00295494
INCLINATION    = 70.8991
RA_OF_ASC_NODE = 52.5351
ARG_OF_PERICENTER = 31.1585
MEAN_ANOMALY   = 329.1281

EPHEMERIS_TYPE = 0
CLASSIFICATION_TYPE = U
NORAD_CAT_ID   = 17973
ELEMENT_SET_NO = 999
REV_AT_EPOCH   = 235
BSTAR          = .8758328E-5
MEAN_MOTION_DOT = -.31E-6
MEAN_MOTION_DDOT = 0

CCSDS_OMM_VERS = 2.0
CREATION_DATE  = 
ORIGINATOR     = 

OBJECT_NAME    = SL-14 R/B
OBJECT_ID      = 1987-055B
CENTER_NAME    = EARTH
REF_FRAME      = TEME
TIME_SYSTEM    = UTC
MEAN_ELEMENT_THEORY = SGP/SGP4

EPOCH          = 2026-02-28T22:07:40.820736
MEAN_MOTION    = 14.85616648
ECCENTRICITY   = .00218423
INCLINATION    = 82.5025
RA_OF_ASC_NODE = 357.2921
ARG_OF_PERICENTER = 45.6987
MEAN_ANOMALY   = 314.6016

EPHEMERIS_TYPE = 0
CLASSIFICATION_TYPE = U
NORAD_CAT_ID   = 18153
ELEMENT_SET_NO = 999
REV_AT_EPOCH   = 6863
BSTAR          = .71649172E-4
MEAN_MOTION_DOT = .647E-5
MEAN_MOTION_DDOT = 0

CCSDS_OMM_VERS = 2.0
CREATION_DATE  = 
ORIGINATOR     = 

OBJECT_NAME    = COSMOS 1867
OBJECT_ID      = 1987-060A
CENTER_NAME    = EARTH
REF_FRAME      = TEME
TIME_SYSTEM    = UTC
MEAN_ELEMENT_THEORY = SGP/SGP4

EPOCH          = 2026-02-28T22:02:08.741472
MEAN_MOTION    = 14.31501344
ECCENTRICITY   = .00143665
INCLINATION    = 65.0122
RA_OF_ASC_NODE = 331.2693
ARG_OF_PERICENTER = 278.0867
MEAN_ANOMALY   = 81.8587

EPHEMERIS_TYPE = 0
CLASSIFICATION_TYPE = U
NORAD_CAT_ID   = 18187
ELEMENT_SET_NO = 999
REV_AT_EPOCH   = 1868
BSTAR          = .2124744E-4
MEAN_MOTION_DOT = -.44E-6
MEAN_MOTION_DDOT = 0

CCSDS_OMM_VERS = 2.0
CREATION_DATE  = 
ORIGINATOR     = 

OBJECT_NAME    = SL-14 R/B
OBJECT_ID      = 1988-001B
CENTER_NAME    = EARTH
REF_FRAME      = TEME
TIME_SYSTEM    = UTC
MEAN_ELEMENT_THEORY = SGP/SGP4

EPOCH          = 2026-02-28T22:00:01.024992
MEAN_MOTION    = 14.85514752
ECCENTRICITY   = .00165885
INCLINATION    = 82.5138
RA_OF_ASC_NODE = 203.6099
ARG_OF_PERICENTER = 267.2147
MEAN_ANOMALY   = 92.7171

EPHEMERIS_TYPE = 0
CLASSIFICATION_TYPE = U
NORAD_CAT_ID   = 18749
ELEMENT_SET_NO = 999
REV_AT_EPOCH   = 4072
BSTAR          = .71390891E-4
MEAN_MOTION_DOT = .641E-5
MEAN_MOTION_DDOT = 0

