SL-14 R/B               
1 16792U 86046B   26059.51230228  .00000497  00000+0  54532-4 0  9996
2 16792  82.4786  88.8560 0021569 257.5358 102.3445 14.85579868125047
SL-14 R/B               
1 16882U 86055B   26059.72096512  .00000487  00000+0  53343-4 0  9993
2 16882  82.5218 135.1032 0018974   6.6659 111.8270 14.85632776118031
AJISAI (EGS)            
1 16908U 86061A   26059.96057309 -.00000088  00000+0  66821-4 0  9999
2 16908  50.0082 120.1906 0011246 264.5414 158.2283 12.44515491466911
COSMOS 1812             
1 17295U 87003A   26060.08552881  .01151834  95835-3  81083-3 0  9992
2 17295  82.4736 205.4843 0006192 288.5601  71.5013 16.16461233143097
SL-14 R/B               
1 17567U 87024B   26059.61638532  .00000458  00000+0  49443-4 0  9997
2 17567  82.5257 101.2936 0016749 292.7368  67.2078 14.86121953 86782
COSMOS 1833             
1 17589U 87027A   26059.94078868 -.00000131  00000+0 -44028-4 0  9994
2 17589  70.9233 344.4050 0024638 226.5786 133.3285 14.13056500  9082
SL-16 R/B               
1 17590U 87027B   26059.93980954 -.00000153  00000+0 -52092-4 0  9997
2 17590  71.0024 294.9344 0003846 160.7685 199.3585 14.17166989 14105
SL-14 R/B               
1 17912U 87038B   26059.87614871  .00000483  00000+0  53246-4 0  9998
2 17912  82.5018 305.1104 0018912 189.3354 170.7514 14.85359987 77923
COSMOS 1844             
1 17973U 87041A   26059.98524759 -.00000031  00000+0  87583-5 0  9998
2 17973  70.8991  52.5351 0029549  31.1585 329.1281 14.14553158  2359
SL-14 R/B               
1 18153U 87055B   26059.92200024  .00000647  00000+0  71649-4 0  9991
2 18153  82.5025 357.2921 0021842  45.6987 314.6016 14.85616648 68630
COSMOS 1867             
1 18187U 87060A   26059.91815673 -.00000044  00000+0  21247-4 0  9996
2 18187  65.0122 331.2693 0014366 278.0867  81.8587 14.31501344 18684
SL-14 R/B               
1 18749U 88001B   26059.91667853  .00000641  00000+0  71391-4 0  9998
2 18749  82.5138 203.6099 0016588 267.2147  92.7171 14.85514752 40726
